STARLINK-31123          
1 58775U 24011L   26068.23965336  .00001211  00000+0  53020-4 0  9997
2 58775  53.1618  15.6065 0001045  65.6642 294.4468 15.30193616120207
HAWK-11A                
1 62382U 24247F   26068.51231358  .00009457  00000+0  34106-3 0  9991
2 62382  44.9941 114.3328 0005466 327.3713  32.6832 15.28849427 67741
